IRIDIUM 119             
1 42959U 17061E   24313.28042131  .00001398  00000+0  49192-3 0  9996
2 42959  86.3934 270.0535 0002667  88.0417 272.1084 14.34232402370835
IRIDIUM 107             
1 42960U 17061F   24313.64831802  .00000782  00000+0  27206-3 0  9997
2 42960  86.3937 269.9173 0002533  81.4622 278.6861 14.34220155370894
IRIDIUM 132             
1 42961U 17061G   24313.58489415  .00000185  00000+0  58912-4 0  9996
2 42961  86.3935 269.9273 0002475  82.4557 277.6920 14.34217177370881
IRIDIUM 136             
1 42962U 17061H   24314.17475588  .00000245  00000+0  80363-4 0  9991
2 42962  86.3931 269.6846 0002392  85.4189 274.7280 14.34213587370982
IRIDIUM 139             
1 42963U 17061J   24313.83224158 -.00001535  00000+0 -55546-3 0  9998
2 42963  86.3938 269.8807 0002473  81.3752 278.7724 14.34218215370946
IRIDIUM 125             
1 42964U 17061K   24313.40095907  .00000037  00000+0  61532-5 0  9998
2 42964  86.3938 270.1114 0002833  92.6595 267.4925 14.34217509370890
IRIDIUM 135             
1 43070U 17083A   24313.86346261  .00000093  00000+0  26280-4 0  9995
2 43070  86.4020 206.6115 0001668  82.9971 277.1414 14.34212552360255
IRIDIUM 138             
1 43071U 17083B   24313.81906428  .00000234  00000+0  76464-4 0  9994
2 43071  86.4012 206.3283 0002282  99.1450 261.0004 14.34219271360235
